#cP2019 10 27  0  0  0.00000000      96 ORBIT IGS14 HLM  IGS
## 2077      0.00000000   900.00000000 58783 0.0000000000000
+   32   G01G02G03G04G05G06G07G08G09G10G11G12G13G14G15G16G17
+        G18G19G20G21G22G23G24G25G26G27G28G29G30G31G32  0  0
+          0  0  0  0  0  0  0  0  0  0  0  0  0  0  0  0  0
+          0  0  0  0  0  0  0  0  0  0  0  0  0  0  0  0  0
+          0  0  0  0  0  0  0  0  0  0  0  0  0  0  0  0  0
++         2  2  2  0  2  2  2  2  2  1  2  2  2  2  2  2  2
++         2  2  2  2  2  2  2  2  2  2  2  2  2  2  2  0  0
++         0  0  0  0  0  0  0  0  0  0  0  0  0  0  0  0  0
++         0  0  0  0  0  0  0  0  0  0  0  0  0  0  0  0  0
++         0  0  0  0  0  0  0  0  0  0  0  0  0  0  0  0  0
%c G  cc GPS ccc cccc cccc cccc cccc ccccc ccccc ccccc ccccc
%c cc cc ccc ccc cccc cccc cccc cccc ccccc ccccc ccccc ccccc
%f  1.2500000  1.025000000  0.00000000000  0.000000000000000
%f  0.0000000  0.000000000  0.00000000000  0.000000000000000
%i    0    0    0    0      0      0      0      0         0
%i    0    0    0    0      0      0      0      0         0
/* FINAL ORBIT COMBINATION FROM WEIGHTED AVERAGE OF:        
/* cod emr esa gfz grg jpl mit ngs sio                      
/* REFERENCED TO IGS TIME (IGST) AND TO WEIGHTED MEAN POLE: 
/* PCV:IGS14_2076 OL/AL:FES2004  NONE     Y  ORB:CMB CLK:CMB
*  2019 10 27  3  0  0.00000000
PG01  -2635.444045 -14722.483045 -22142.296596   -176.537668  8  5  4  61       
PG02 -18448.052225  15010.739511  12308.309373   -334.256451  7  5  4  56       
PG03 -11436.786012 -21875.596697  -9980.874081    -27.796614  5  7  6  85       
PG04 -13734.595072  -6845.653929  21683.093100 999999.999999
PG05  -6499.982696  14650.622242  21011.410521     -2.755341  7  5  2  75       
PG06 -25886.114104   5953.701323   -782.448692   -103.888695  6  6  6  59       
PG07 -19065.214378  -8030.793624  17201.188270   -135.698578  4  5  5  72       
PG08   5051.507420 -25801.781023  -2782.243411    -11.299991  6  8  7  98       
PG09  -9887.265756 -15476.068337  19133.740597    -67.424517  6  6  4  64       
PG10  21128.575704   7452.315370 -14371.640208   -110.327819  6  5  2  84       
PG11   -604.011743 -18948.326117 -19222.414366   -466.213325  7  6  4  98       
PG12   6126.312899  21921.556559 -14035.486640    189.891904  7  8  4  68       
PG13 -13035.708433  22640.114746   4456.243217    -36.506622  6  6  4 107       
PG14  16574.105580 -13254.956347 -15530.993532    -53.923171  6  6  5  94       
PG15  -1826.765885  26038.726449  -3876.925902   -277.028426  8  7  4 101       
PG16   9376.550655 -11574.694862  21762.399059    -87.170071  8  8  8  70       
PG17 -15662.912116   2937.373639 -20812.097224    151.631880  6  6  3  89       
PG18   6510.563192 -16761.469948 -20022.695014     95.911524  8  5  3  69       
PG19 -17009.249317   9904.306574 -18139.941343   -248.196738  8  7  6  92       
PG20  22519.669209  13442.864072  -4894.849500    527.305238  5  6  3  86       
PG21  21512.111841   4789.823042  15467.779685    -95.884017  8  6  2  72       
PG22  -5603.646890 -20610.645377 -15630.518681   -767.176744  7  8  5 102       
PG23  -3358.793564 -23103.959552  12638.489055   -159.132688  8  8  5  89       
PG24    712.968661  16090.361792 -21249.879784     -4.045400  7  5  3  65       
PG25  17604.525038  20023.101090  -1679.028921    -16.244678  6  6  4  88       
PG26  16725.408479  -3957.016087  20281.983555     70.587247  6  7  6  64       
PG27  12268.902499 -21661.239949   8689.954283   -100.471256  8  9  8  81       
PG28 -19740.049012  -8817.905446 -14744.144441    757.553922  5  7  7 104       
PG29   6995.454116  17324.864978  18836.066088     60.492784  7  6  6  98       
PG30 -25426.799465   -697.316359   8019.488849    -70.384765  6  5  6  77       
PG31  25920.896633  -6705.430921   1414.499581      0.939722  7  7  4  92       
PG32  16133.303576  -3492.278479 -20720.457114    104.928770  4  3  7  67       
*  2019 10 27  3 15  0.00000000
PG01   -246.210251 -15351.433747 -21838.442150   -176.549341  8  5  3  90       
PG02 -19644.143269  15197.934785   9847.163551   -334.263565  7  5  4  84       
PG03 -10382.470168 -21136.573707 -12430.665870    -27.801328  5  7  6  86       
PG04 -13021.788021  -9195.814321  21250.330301 999999.999999
PG05  -8350.149246  13022.671342  21440.218318     -2.755545  8  5  2  83       
PG06 -25694.666331   5684.852301  -3654.340277   -103.899967  6  6  6  83       
PG07 -17171.548981  -8669.197843  18794.554854   -135.706144  6  5  4  76       
PG08   5325.706288 -25899.070056    100.183109    -11.301326  6  9  7  77       
PG09  -9256.611158 -17501.809125  17649.289223    -67.433459  7  6  5  72       
PG10  22090.793744   8638.766238 -12110.736991   -110.341532  6  5  2  85       
PG11   1024.336801 -20185.429221 -17889.498249   -466.203524  7  6  4  90       
PG12   4905.455245  20755.259619 -16146.802981    189.888620  6  8  4  76       
PG13 -13004.088480  21919.328014   7226.082551    -36.504437  6  6  4 102       
PG14  16123.779637 -11353.639890 -17380.207937    -53.921594  6  5  5  56       
PG15  -2234.974717  26238.036637  -1084.049937   -277.026377  8  8  4 112       
PG16  11057.118029  -9671.773564  21938.715129    -87.173588  8  8  8  65       
PG17 -14966.765499    529.170965 -21506.731274    151.638444  5  5  3  69       
PG18   8558.477982 -17333.391142 -18677.598166     95.914412  8  5  3  95       
PG19 -16379.070601   7897.110981 -19663.757435   -248.191876  7  7  6  76       
PG20  22641.241761  13932.406209  -2147.775519    527.305162  4  6  3  90       
PG21  19914.050168   5543.827978  17356.439316    -95.878675  8  5  3  80       
PG22  -3979.038910 -19544.491625 -17367.822502   -767.179469  7  8  4  69       
PG23  -2803.822369 -24287.207487  10229.422601   -159.130979  8  8  6  78       
PG24  -1558.672557  16785.885300 -20621.330466     -4.045957  7  5  3  82       
PG25  17222.418886  19945.667651  -4505.362408    -16.245343  6  6  4  74       
PG26  18316.238977  -2351.941773  19143.309501     70.594857  6  7  6  74       
PG27  12184.718842 -20481.913638  11279.618197   -100.482025  8  9  8  72       
PG28 -20677.977595 -10189.391010 -12483.892967    757.552960  5  6  7 100       
PG29   6256.353873  19250.912612  17151.512244     60.483591  7  6  6  91       
PG30 -24463.949802  -1207.061340  10546.019020    -70.392300  6  5  6  94       
PG31  25978.009345  -6488.085118  -1411.290666      0.937456  6  7  4  86       
PG32  15622.072494  -1121.302420 -21375.414692    104.940098  5  3  6  66       
*  2019 10 27  3 30  0.00000000
PG01   2055.956753 -16094.280244 -21164.491582   -176.561060  7  6  3  93       
PG02 -20570.973233  15332.771164   7219.561053   -334.270701  7  5  4  88       
PG03  -9090.498231 -20281.268161 -14668.160545    -27.806102  5  7  6  75       
PG04 -12447.463008 -11511.796364  20452.120803 999999.999999
PG05 -10299.254037  11472.986417  21495.012570     -2.755829  8  5  3  94       
PG06 -25214.451094   5298.450042  -6463.389129   -103.911285  5  6  6  71       
PG07 -15160.530119  -9457.627792  20076.336927   -135.713344  6  5  4  74       
PG08   5537.323964 -25687.354053   2980.866069    -11.302712  6  9  7  92       
PG09  -8761.815201 -19374.021124  15859.862521    -67.442304  7  5  5  73       
PG10  22911.483881   9597.565937  -9643.087233   -110.355200  5  5  3  86       
PG11   2480.405293 -21380.676013 -16263.217738   -466.193014  7  6  4  84       
PG12   3464.007491  19503.160246 -17986.111205    189.884908  5  8  5  70       
PG13 -12916.647380  20904.349470   9870.568732    -36.502660  6  5  4 113       
PG14  15719.914454  -9243.253013 -18920.900088    -53.919572  6  3  5  62       
PG15  -2606.788520  26138.736886   1727.891162   -277.023961  7  8  3 107       
PG16  12834.985800  -7868.127971  21730.774765    -87.176770  8  8  8  23       
PG17 -14389.163300  -1969.954033 -21816.204003    151.644997  4  5  3 100       
PG18  10422.878412 -17948.895542 -17022.424305     95.916044  8  5  3  72       
PG19 -15819.589781   5712.987239 -20857.545293   -248.187388  7  6  5  76       
PG20  22527.555728  14244.244364    635.798976    527.305117  4  6  3  78       
PG21  18183.743314   6449.453163  18960.508455    -95.872728  7  5  3  50       
PG22  -2159.972642 -18447.696557 -18802.411220   -767.182098  7  8  4  89       
PG23  -2351.375860 -25219.881998   7643.184421   -159.128909  9  9  6  87       
PG24  -3713.917246  17557.812427 -19640.935564     -4.046827  7  6  4  87       
PG25  16601.005987  19682.955327  -7255.671543    -16.245986  6  6  4  72       
PG26  19871.050012   -923.373824  17676.634414     70.602496  5  7  5  70       
PG27  12111.967990 -19019.651140  13670.864453   -100.492823  8  9  8  66       
PG28 -21497.918860 -11306.643693 -10000.187891    757.551664  6  6  7 108       
PG29   5678.455340  21013.574455  15170.844628     60.474743  7  7  6  90       
PG30 -23265.185287  -1843.512085  12893.219639    -70.399772  6  5  6  94       
PG31  25746.361816  -6178.505455  -4213.468160      0.934872  5  7  4  86       
PG32  15223.609445   1324.095465 -21660.039912    104.951347  5  5  6  66       
EOF
